,id,spkid,full_name,pdes,name,prefix,neo,pha,H,diameter,albedo,diameter_sigma,orbit_id,epoch,epoch_mjd,epoch_cal,equinox,e,a,q,i,om,w,ma,ad,n,tp,tp_cal,per,per_y,moid,moid_ld,sigma_e,sigma_a,sigma_q,sigma_i,sigma_om,sigma_w,sigma_ma,sigma_ad,sigma_n,sigma_tp,sigma_per,class,rms
460,bK18A18S,3799652,       (2018 AS18),2018 AS18,,,N,N,16.0,,,,5,2459000.5,59000,20200531.0,J2000,0.8721191705066584,12.97132279945357,1.658783519220015,62.97601441264991,351.6979430700264,214.9226445093756,17.13241583454223,24.28386207968711,0.0210973386027248,2458188.4347363594,20180310.9347364,17063.76367081222,46.7180387975694,0.765983,298.09760411,4.1227e-05,0.0042561,9.6069e-06,0.00040877,0.00030094,0.00032868,0.0084225,0.0079679,1.0384e-05,0.0006258,8.3983,CEN,0.43681
461,bK18A25N,54006001,       (2018 AN25),2018 AN25,,,N,N,16.256,,,,JPL 1,2459000.5,59000,20200531.0,J2000,0.4854061087452227,5.74702889273193,2.957385961064559,12.45470687326148,107.0938657577546,52.29556021860735,53.34538213065551,8.536671824399303,0.0715383638361271,2458254.8108442784,20180516.3108443,5032.264937239153,13.7775905194775,1.98825,773.7672525,9.358e-06,0.00011854,1.2639e-05,1.9766e-05,8.3437e-05,0.0011293,0.0018675,0.00017607,2.2133e-06,0.0053412,0.15569,CEN,0.75685
462,bK18E01Z,3799851,       (2018 EZ1),2018 EZ1,,,N,N,11.6,,,,JPL 8,2459000.5,59000,20200531.0,J2000,0.3915458086456479,16.22462145594911,9.871938928009987,29.71117181321862,357.6348290399939,184.6362893709117,2.715383477673412,22.57730398388824,0.0150814193014313,2458820.4517284543,20191202.9517285,23870.43240458358,65.3536821480728,8.87601,3454.2768117,8.2125e-06,0.00026087,2.5978e-05,1.532e-05,2.1552e-05,0.00052492,0.00014951,0.00036301,3.6373e-07,0.014046,0.5757,CEN,0.70916
463,bK18E04G,3801931,       (2018 EG4),2018 EG4,,,N,N,15.5,,,,JPL 2,2458185.5,58185,20180308.0,J2000,0.6660070427827501,13.14904434372084,4.391688204940077,17.38960890689424,28.99630341264011,100.6349358306234,5.787370867046222,21.90640048250161,0.0206710619680741,2457905.525469616,20170601.0254696,17415.65094991293,47.6814536616371,3.46213,1347.3571321,0.026842,0.81625,0.080844,0.32035,0.82014,3.3567,0.48768,1.3599,0.0019248,23.068,1621.7,CEN,0.39973
464,bK18M08O,3825508,       (2018 MO8),2018 MO8,,,N,N,13.5,,,,JPL 15,2459000.5,59000,20200531.0,J2000,0.6686924043370303,15.07353803251455,4.993977643686727,51.45447859542639,138.4019000971545,74.82879812684314,8.719498747497866,25.15309842134237,0.0168415194931381,2458482.761754882,20181230.2617549,21375.74345038624,58.5235960311738,4.37588,1702.9612196,4.0488e-06,0.00019777,4.7314e-06,1.0471e-05,1.2048e-05,0.00012556,0.00015624,0.00033002,3.3145e-07,0.001131,0.42069,CEN,0.58385
465,bK18P28L,3830510,       (2018 PL28),2018 PL28,,,N,N,14.849,,,,3,2459000.5,59000,20200531.0,J2000,0.8624280510973497,19.53715767594129,2.687764857497619,74.14524760649651,350.7659014561106,275.1394932781338,11.97278381012531,36.38655049438497,0.0114133202019874,2457951.481519993,20170716.98152,31542.09236478897,86.3575424087309,2.36822,921.6401774,1.9488e-06,0.00027399,5.7791e-07,9.0425e-05,8.829e-06,6.089e-05,0.00024811,0.00051029,2.4009e-07,0.00062504,0.66353,CEN,0.48393
466,bK18R02R,3827332,       (2018 RR2),2018 RR2,,,N,N,11.9,,,,JPL 10,2459000.5,59000,20200531.0,J2000,0.6422874669366905,21.49551146299413,7.689213854919036,40.22187832712245,1.454693397672025,7.628773653640309,3.078645391163378,35.30180907106922,0.0098896836387375,2458689.2013271987,20190724.7013272,36401.56886211141,99.6620639619751,6.69177,2604.2361309,1.3246e-05,0.00086155,2.4155e-05,3.9654e-05,1.3914e-05,0.00046018,0.00013968,0.0014149,5.9458e-07,0.0078444,2.1885,CEN,0.49035
467,bK18R39G,3978831,       (2018 RG39),2018 RG39,,,N,N,15.362,,,,JPL 5,2459000.5,59000,20200531.0,J2000,0.5287526291297359,5.850941948332236,2.757241010266107,15.8455639188735,33.90508876684884,69.02827880669403,25.7491676362357,8.944642886398364,0.0696410627740765,2458630.758835656,20190527.2588357,5169.363959419752,14.1529471852697,1.82308,709.4880436,6.034e-06,7.9711e-05,2.7873e-06,1.9472e-05,4.0728e-05,0.00039378,0.00057113,0.00012186,1.4231e-06,0.0019209,0.10564,CEN,0.55125
468,bK18T06L,3831869,       (2018 TL6),2018 TL6,,,N,N,19.9,,,,JPL 1,2458399.5,58399,20181008.0,J2000,0.790280322819,8.221900222865019,1.724294260553644,170.9182420951266,45.50923082642876,78.39184365290703,356.5578120631019,14.71950618517639,0.0418066887163125,2458481.835818564,20181229.3358186,8611.06227385886,23.575803624528,0.741081,288.40649277,0.034277,1.4117,0.014232,0.026549,0.21134,1.2707,1.0077,2.5273,0.010767,2.8996,2217.7,CEN,0.23828
469,bK18U01B,3831901,       (2018 UB1),2018 UB1,,,N,N,14.2,,,,JPL 9,2459000.5,59000,20200531.0,J2000,0.5146546613122641,7.650191348483776,3.712984711055845,19.36523297061133,225.9777884576327,157.4641546877958,26.04651094955013,11.58739798591171,0.0465795862939506,2458441.317039782,20181118.8170398,7728.707544290781,21.1600480336503,2.72764,1061.5156588,9.632e-06,0.00017422,1.2306e-05,2.3484e-05,3.461e-05,0.00063318,0.0010375,0.00026388,1.5911e-06,0.0038404,0.26401,CEN,0.45294
470,bK18W01B,3836292,       (2018 WB1),2018 WB1,,,N,N,17.4,,,,4,2459000.5,59000,20200531.0,J2000,0.6942810209093796,7.278812498784628,2.225271126120484,152.2582638437065,147.6598131031404,111.6362892460663,27.63151232599815,12.33235387144877,0.0501895469779703,2458449.956829365,20181127.4568294,7172.808317198283,19.638078897189,1.38151,537.6422467,3.1814e-06,8.2488e-05,3.2023e-06,2.9884e-05,2.1141e-05,0.00017201,0.00048202,0.00013976,8.5317e-07,0.00039158,0.12193,CEN,0.4984
471,bK19A07B,3837730,       (2019 AB7),2019 AB7,,,N,N,9.5,,,,2,2459000.5,59000,20200531.0,J2000,0.2409260709062344,26.77169759385909,20.32169768108073,12.11652073084334,64.60344709049662,36.12481136296977,18.52041662279118,33.22169750663745,0.0071152507192787,2456397.581655519,20130415.0816555,50595.54669304656,138.523057338937,19.3465,7529.077405,3.0034e-05,0.0013401,0.00021802,3.1581e-05,0.00018205,0.0037229,0.0034372,0.001663,5.3424e-07,0.30921,3.7989,CEN,0.71882
472,bK19A16J,3838221,       (2019 AJ16),2019 AJ16,,,N,N,11.8,,,,JPL 4,2459000.5,59000,20200531.0,J2000,0.2129098743142582,11.49894430341917,9.05070551703154,10.65328084069511,327.7415310137561,261.7462487134698,299.2331105419265,13.9471830898068,0.0252765105121468,2461404.585383102,20261230.0853831,14242.47226795798,38.9937639095359,8.05992,3136.6790664,2.955e-06,0.00021012,0.00019227,2.7362e-05,8.7532e-05,0.0037535,0.003123,0.00025486,6.9283e-07,0.058206,0.39039,CEN,0.74949
473,bK19A54H,54016278,       (2019 AH54),2019 AH54,,,N,N,14.924,,,,JPL 4,2459000.5,59000,20200531.0,J2000,0.6696338923407915,10.12543642537219,3.345101020200981,11.31274041772506,335.6595753444398,240.0509870247245,357.7702781323209,16.90577183054341,0.0305902796404564,2459073.389881815,20200811.8898818,11768.44423232701,32.2202443047967,2.35956,918.2699652,5.3158e-06,0.00014864,2.1226e-05,2.4335e-05,6.5524e-05,0.0005816,8.2845e-05,0.00024818,6.7361e-07,0.0018347,0.25915,CEN,0.41848
474,bK19A54K,54016610,       (2019 AK54),2019 AK54,,,N,N,14.648,,,,JPL 2,2459000.5,59000,20200531.0,J2000,0.5930256873363181,11.07765376700835,4.508320527754469,31.62068054162252,135.7092398879536,76.9907929142797,358.9196636644385,17.64698700626223,0.0267320579074245,2459040.913511721,20200710.4135117,13466.97666325247,36.8705726577754,3.67829,1431.4801193,7.2239e-06,0.00023358,1.5752e-05,3.0259e-05,2.237e-05,0.00051353,0.00013295,0.0003721,8.455e-07,0.0037161,0.42594,CEN,0.62794
475,bK19C00R,3838103,       (2019 CR),2019 CR,,,N,N,13.2,,,,JPL 9,2459000.5,59000,20200531.0,J2000,0.594901059400471,14.49439422656094,5.871663745811768,160.3358129608934,23.14743742297605,332.4263878607925,358.9090676566115,23.11712470731012,0.0178609259493973,2459061.579271393,20200731.0792714,20155.72994479314,55.183381094574,4.89569,1905.2556773,3.8628e-06,0.00016097,1.0556e-05,1.0489e-05,4.689e-05,0.00026714,6.7184e-05,0.00025672,2.9753e-07,0.0027717,0.33576,CEN,0.66655
476,bK19C03J,3838224,       (2019 CJ3),2019 CJ3,,,N,N,8.8,,,,JPL 7,2459000.5,59000,20200531.0,J2000,0.2229035704573457,21.61193362764003,16.7945564575519,39.6929369670359,140.6780785515833,325.6652934100306,22.50785286360301,26.42931079772817,0.0098098786753904,2456706.093146624,20140217.5931466,36697.70156313083,100.472831110557,15.8741,6177.723497,8.087e-06,0.00027054,3.6646e-05,2.3537e-05,1.4229e-05,0.00058993,0.00069132,0.00033084,1.842e-07,0.037245,0.68908,CEN,0.41028
477,bK19G030,3841498,       (A/2019 G3),2019 G3,,A,N,N,17.189,,,,JPL 4,2458592.5,58592,20190419.0,J2000,0.8343713252557565,17.23480412668929,2.854577766980166,156.8155818859625,49.76288100754618,161.8311570496226,1.881397494723972,31.61503048639841,0.0137750931989601,2458455.920343692,20181203.4203437,26134.12445203458,71.5513332020112,1.85196,720.7272732,0.0030119,0.32344,0.0016674,0.010423,0.010936,0.10973,0.058556,0.59332,0.00038777,0.40668,735.69,CEN,0.45429
478,bK19G14L,3841024,       (2019 GL14),2019 GL14,,,N,N,15.686,,,,JPL 1,2458578.5,58578,20190405.0,J2000,0.2377757307909132,6.242044788759772,4.757838027482806,2.346681567572585,258.6810167002018,282.8151831153639,9.446492261721575,7.726251550036738,0.0631995161063441,2458429.029041301,20181106.5290413,5696.246145211582,15.5954719923657,3.76213,1464.1081321,0.38185,1.7503,1.0497,0.35496,10.656,41.9,13.067,2.1665,0.026582,250.73,2395.9,CEN,0.40945
479,bK19G19B,3841165,       (2019 GB19),2019 GB19,,,N,N,10.7,,,,3,2459000.5,59000,20200531.0,J2000,0.3599824784572572,19.42606351250779,12.43302102260715,31.47306117362946,104.8017689637165,79.54245957826618,11.28582339444866,26.41910600240844,0.0115113661339926,2458020.09304716,20170923.5930472,31273.43842682001,85.6220080131965,11.5884,4509.857628,1.123e-05,0.00039465,3.4741e-05,1.2092e-05,5.0147e-05,0.00060154,0.00032733,0.00053672,3.5079e-07,0.023004,0.953,CEN,0.48452
